{
    "links": {
        "self": "http://www.neowsapp.com/rest/v1/neo/3306405?api_key=iIulBulltgU6a56xZRHN4H3l9WmuAYTsLGpBGhQ2"
    },
    "id": "3306405",
    "neo_reference_id": "3306405",
    "name": "(2005 XO4)",
    "designation": "2005 XO4",
    "nasa_jpl_url": "http://ssd.jpl.nasa.gov/sbdb.cgi?sstr=3306405",
    "absolute_magnitude_h": 22.2,
    "estimated_diameter": {
        "kilometers": {
            "estimated_diameter_min": 0.096506147,
            "estimated_diameter_max": 0.2157943048
        },
        "meters": {
            "estimated_diameter_min": 96.5061469579,
            "estimated_diameter_max": 215.7943048444
        },
        "miles": {
            "estimated_diameter_min": 0.059966121,
            "estimated_diameter_max": 0.134088323
        },
        "feet": {
            "estimated_diameter_min": 316.6212271853,
            "estimated_diameter_max": 707.9865871058
        }
    },
    "is_potentially_hazardous_asteroid": false,
    "close_approach_data": [
        {
            "close_approach_date": "2006-01-01",
            "close_approach_date_full": "2006-Jan-01 19:12",
            "epoch_date_close_approach": 1136142720000,
            "relative_velocity": {
                "kilometers_per_second": "9.0891201174",
                "kilometers_per_hour": "32720.8324224957",
                "miles_per_hour": "20331.4527905224"
            },
            "miss_distance": {
                "astronomical": "0.0477422177",
                "lunar": "18.5717226853",
                "kilometers": "7142134.076996299",
                "miles": "4437916.3265309662"
            },
            "orbiting_body": "Earth"
        }
    ],
    "orbital_data": {
        "orbit_id": "11",
        "orbit_determination_date": "2017-04-06 09:09:41",
        "first_observation_date": "2005-12-05",
        "last_observation_date": "2005-12-28",
        "data_arc_in_days": 23,
        "observations_used": 35,
        "orbit_uncertainty": "8",
        "minimum_orbit_intersection": ".0218732",
        "jupiter_tisserand_invariant": "3.333",
        "epoch_osculation": "2453714.5",
        "eccentricity": ".5965141311475938",
        "semi_major_axis": "2.29379761455172",
        "inclination": "2.367197974094508",
        "ascending_node_longitude": "297.005822137774",
        "orbital_period": "1268.910736369726",
        "perihelion_distance": ".9255149234789775",
        "perihelion_argument": "179.678751448966",
        "aphelion_distance": "3.662080305624462",
        "perihelion_time": "2453749.235194736878",
        "mean_anomaly": "350.1453508534011",
        "mean_motion": ".2837078997612846",
        "equinox": "J2000",
        "orbit_class": {
            "orbit_class_type": "APO",
            "orbit_class_description": "Near-Earth asteroid orbits which cross the Earth’s orbit similar to that of 1862 Apollo",
            "orbit_class_range": "a (semi-major axis) > 1.0 AU; q (perihelion) < 1.017 AU"
        }
    },
    "is_sentry_object": false
}